FLOCK 4Q-11             
1 58273U 23174T   26115.67649124  .00021505  00000+0  42058-3 0  9990
2 58273  97.3863 203.2019 0004957   2.4821 357.6453 15.47443250137461
FLOCK 4Q-36             
1 58274U 23174U   26115.78401265  .00034384  00000+0  52655-3 0  9998
2 58274  97.3847 206.4160 0005088 330.3226  29.7739 15.54267276137682
FLOCK 4Q-28             
1 58280U 23174AA  26115.80574401  .00029134  00000+0  48670-3 0  9990
2 58280  97.3880 205.4137 0003806 340.5653  19.5454 15.51886796137617
FLOCK 4Q-27             
1 58282U 23174AC  26115.80374695  .00030396  00000+0  50962-3 0  9994
2 58282  97.3813 204.9050 0003652 340.8182  19.2932 15.51777075137620
FLOCK 4Q-26             
1 58284U 23174AE  26115.78285678  .00034063  00000+0  52819-3 0  9993
2 58284  97.3870 206.4953 0004642 340.8060  19.3018 15.53927383137682
FLOCK 4Q-31             
1 58285U 23174AF  26115.49855876  .00033257  00000+0  51685-3 0  9999
2 58285  97.3906 205.8541 0004442 341.8605  18.2489 15.53870897137590
FLOCK 4Q-30             
1 58286U 23174AG  26115.80223415  .00038635  00000+0  59513-3 0  9996
2 58286  97.3923 206.3761 0003151 340.4085  19.7047 15.54091441137657
PELICAN-1               
1 58296U 23174AS  26115.81821051  .00112939  00000+0  90579-3 0  9995
2 58296  97.4004 212.9374 0003473 145.4047 214.7442 15.70665447137938
FLOCK 4Q-29             
1 58304U 23174BA  26115.93607683  .00033550  00000+0  54677-3 0  9991
2 58304  97.3926 206.0035 0003966 327.5893  32.5116 15.52551366137643
FLOCK 4Q-22             
1 58306U 23174BC  26115.80660552  .00036954  00000+0  53540-3 0  9992
2 58306  97.3812 206.2019 0002961 324.3945  35.7111 15.55781760137714
FLOCK 4Q-33             
1 58308U 23174BE  26115.76252714  .00030524  00000+0  46501-3 0  9992
2 58308  97.3847 206.0346 0004097 321.3496  38.7464 15.54439540137680
FLOCK 4Q-35             
1 58309U 23174BF  26115.78183204  .00032756  00000+0  51791-3 0  9998
2 58309  97.3873 206.1562 0004097 336.6420  23.4647 15.53398048137665
FLOCK 4Q-7              
1 58318U 23174BQ  26115.78470243  .00031006  00000+0  51043-3 0  9997
2 58318  97.3905 205.6291 0004779 324.7859  35.3077 15.52280395137613
FLOCK 4Q-2              
1 58320U 23174BS  26115.91718104  .00026323  00000+0  51586-3 0  9994
2 58320  97.3827 203.2115 0004541 332.3272  27.7736 15.47345206137512
FLOCK 4Q-9              
1 58322U 23174BU  26115.94425210  .00031180  00000+0  61284-3 0  9995
2 58322  97.3864 203.2874 0004608 332.6277  27.4729 15.47226242137505
FLOCK 4Q-4              
1 58327U 23174BZ  26115.76927563  .00020531  00000+0  41564-3 0  9995
2 58327  97.3816 202.4131 0004946   5.0388 355.0910 15.46447098137452
